{
  "type": "FeatureCollection",
  "features": [
    {
      "type": "Feature",
      "properties": {
        "norad_id": 34079,
        "name": "IRIDIUM 33 DEB",
        "group": "iridium-33-debris",
        "lat": 4.291174477131373,
        "lon": -167.06432873822394,
        "alt_km": 625.6183621899336,
        "timestamp": "2025-12-02T17:49:12.414173+00:00",
        "meta_object_name": "IRIDIUM 33 DEB",
        "meta_object_id": "1997-051CN",
        "meta_epoch": "2025-12-02T02:41:47.766624",
        "meta_mean_motion": 14.83089059,
        "meta_eccentricity": 0.00068188,
        "meta_inclination": 86.379,
        "meta_ra_of_asc_node": 13.4941,
        "meta_arg_of_pericenter": 39.8853,
        "meta_mean_anomaly": 13.4166,
        "meta_ephemeris_type": 0,
        "meta_classification_type": "U",
        "meta_norad_cat_id": 34079,
        "meta_element_set_no": 999,
        "meta_rev_at_epoch": 88820,
        "meta_bstar": 0.0017614737,
        "meta_mean_motion_dot": 0.00014386,
        "meta_mean_motion_ddot": 0,
        "tle_line1": "1 34079U 97051CN  25336.11235841  .00014386  00000+0  17615-2 0  9992",
        "tle_line2": "2 34079  86.3790  13.4941 0006818  39.8853  13.4166 14.83089059888203"
      },
      "geometry": {
        "type": "Point",
        "coordinates": [
          -167.06432873822394,
          4.291174477131373
        ]
      }
    },
    {
      "type": "Feature",
      "properties": {
        "norad_id": 34088,
        "name": "IRIDIUM 33 DEB",
        "group": "iridium-33-debris",
        "lat": -9.157935256794731,
        "lon": 34.731276701647744,
        "alt_km": 602.9348461414111,
        "timestamp": "2025-12-02T17:49:12.414184+00:00",
        "meta_object_name": "IRIDIUM 33 DEB",
        "meta_object_id": "1997-051CX",
        "meta_epoch": "2025-12-02T05:14:28.919328",
        "meta_mean_motion": 14.90549339,
        "meta_eccentricity": 0.0005127,
        "meta_inclination": 86.3866,
        "meta_ra_of_asc_node": 35.5553,
        "meta_arg_of_pericenter": 216.8077,
        "meta_mean_anomaly": 203.5525,
        "meta_ephemeris_type": 0,
        "meta_classification_type": "U",
        "meta_norad_cat_id": 34088,
        "meta_element_set_no": 999,
        "meta_rev_at_epoch": 88585,
        "meta_bstar": 0.0030879,
        "meta_mean_motion_dot": 0.00030304,
        "meta_mean_motion_ddot": 0,
        "tle_line1": "1 34088U 97051CX  25336.21839027  .00030304  00000+0  30879-2 0  9994",
        "tle_line2": "2 34088  86.3866  35.5553 0005127 216.8077 203.5525 14.90549339885857"
      },
      "geometry": {
        "type": "Point",
        "coordinates": [
          34.731276701647744,
          -9.157935256794731
        ]
      }
    },
    {
      "type": "Feature",
      "properties": {
        "norad_id": 34091,
        "name": "IRIDIUM 33 DEB",
        "group": "iridium-33-debris",
        "lat": 11.842467605112061,
        "lon": -109.36122414823356,
        "alt_km": 650.8653216585399,
        "timestamp": "2025-12-02T17:49:12.414194+00:00",
        "meta_object_name": "IRIDIUM 33 DEB",
        "meta_object_id": "1997-051DA",
        "meta_epoch": "2025-12-02T05:42:26.763264",
        "meta_mean_motion": 14.80503091,
        "meta_eccentricity": 0.0032917,
        "meta_inclination": 86.342,
        "meta_ra_of_asc_node": 71.638,
        "meta_arg_of_pericenter": 331.035,
        "meta_mean_anomaly": 28.9043,
        "meta_ephemeris_type": 0,
        "meta_classification_type": "U",
        "meta_norad_cat_id": 34091,
        "meta_element_set_no": 999,
        "meta_rev_at_epoch": 87711,
        "meta_bstar": 0.0059169,
        "meta_mean_motion_dot": 0.00045975,
        "meta_mean_motion_ddot": 0,
        "tle_line1": "1 34091U 97051DA  25336.23780976  .00045975  00000+0  59169-2 0  9991",
        "tle_line2": "2 34091  86.3420  71.6380 0032917 331.0350  28.9043 14.80503091877115"
      },
      "geometry": {
        "type": "Point",
        "coordinates": [
          -109.36122414823356,
          11.842467605112061
        ]
      }
    },
    {
      "type": "Feature",
      "properties": {
        "norad_id": 34097,
        "name": "IRIDIUM 33 DEB",
        "group": "iridium-33-debris",
        "lat": -73.11692615596175,
        "lon": -6.825054454290968,
        "alt_km": 801.7875220975402,
        "timestamp": "2025-12-02T17:49:12.414204+00:00",
        "meta_object_name": "IRIDIUM 33 DEB",
        "meta_object_id": "1997-051DG",
        "meta_epoch": "2025-12-02T03:05:43.364832",
        "meta_mean_motion": 14.34646707,
        "meta_eccentricity": 0.00838008,
        "meta_inclination": 86.2012,
        "meta_ra_of_asc_node": 6.091,
        "meta_arg_of_pericenter": 36.59,
        "meta_mean_anomaly": 324.0979,
        "meta_ephemeris_type": 0,
        "meta_classification_type": "U",
        "meta_norad_cat_id": 34097,
        "meta_element_set_no": 999,
        "meta_rev_at_epoch": 86967,
        "meta_bstar": 0.001439253,
        "meta_mean_motion_dot": 4.252e-05,
        "meta_mean_motion_ddot": 0,
        "tle_line1": "1 34097U 97051DG  25336.12897413  .00004252  00000+0  14393-2 0  9993",
        "tle_line2": "2 34097  86.2012   6.0910 0083800  36.5900 324.0979 14.34646707869674"
      },
      "geometry": {
        "type": "Point",
        "coordinates": [
          -6.825054454290968,
          -73.11692615596175
        ]
      }
    },
    {
      "type": "Feature",
      "properties": {
        "norad_id": 34145,
        "name": "IRIDIUM 33 DEB",
        "group": "iridium-33-debris",
        "lat": -72.88922430528635,
        "lon": -35.44971720847488,
        "alt_km": 795.9522681821636,
        "timestamp": "2025-12-02T17:49:12.414215+00:00",
        "meta_object_name": "IRIDIUM 33 DEB",
        "meta_object_id": "1997-051DY",
        "meta_epoch": "2025-12-02T04:50:28.112064",
        "meta_mean_motion": 14.42171439,
        "meta_eccentricity": 0.005521,
        "meta_inclination": 86.2116,
        "meta_ra_of_asc_node": 337.2204,
        "meta_arg_of_pericenter": 127.3566,
        "meta_mean_anomaly": 233.2681,
        "meta_ephemeris_type": 0,
        "meta_classification_type": "U",
        "meta_norad_cat_id": 34145,
        "meta_element_set_no": 999,
        "meta_rev_at_epoch": 87486,
        "meta_bstar": 0.0012017,
        "meta_mean_motion_dot": 4.048e-05,
        "meta_mean_motion_ddot": 0,
        "tle_line1": "1 34145U 97051DY  25336.20171426  .00004048  00000+0  12017-2 0  9999",
        "tle_line2": "2 34145  86.2116 337.2204 0055210 127.3566 233.2681 14.42171439874861"
      },
      "geometry": {
        "type": "Point",
        "coordinates": [
          -35.44971720847488,
          -72.88922430528635
        ]
      }
    },
    {
      "type": "Feature",
      "properties": {
        "norad_id": 34146,
        "name": "IRIDIUM 33 DEB",
        "group": "iridium-33-debris",
        "lat": 41.24472621682356,
        "lon": -2.516023682559164,
        "alt_km": 740.2330496951836,
        "timestamp": "2025-12-02T17:49:12.414226+00:00",
        "meta_object_name": "IRIDIUM 33 DEB",
        "meta_object_id": "1997-051DZ",
        "meta_epoch": "2025-12-02T07:45:12.587040",
        "meta_mean_motion": 14.48929067,
        "meta_eccentricity": 0.0024975,
        "meta_inclination": 86.284,
        "meta_ra_of_asc_node": 354.4024,
        "meta_arg_of_pericenter": 259.0769,
        "meta_mean_anomaly": 115.7131,
        "meta_ephemeris_type": 0,
        "meta_classification_type": "U",
        "meta_norad_cat_id": 34146,
        "meta_element_set_no": 999,
        "meta_rev_at_epoch": 87956,
        "meta_bstar": 0.0011939,
        "meta_mean_motion_dot": 4.556e-05,
        "meta_mean_motion_ddot": 0,
        "tle_line1": "1 34146U 97051DZ  25336.32306235  .00004556  00000+0  11939-2 0  9997",
        "tle_line2": "2 34146  86.2840 354.4024 0024975 259.0769 115.7131 14.48929067879569"
      },
      "geometry": {
        "type": "Point",
        "coordinates": [
          -2.516023682559164,
          41.24472621682356
        ]
      }
    },
    {
      "type": "Feature",
      "properties": {
        "norad_id": 34159,
        "name": "IRIDIUM 33 DEB",
        "group": "iridium-33-debris",
        "lat": 45.586020561913706,
        "lon": -131.23065105107463,
        "alt_km": 778.5170948796731,
        "timestamp": "2025-12-02T17:49:12.414236+00:00",
        "meta_object_name": "IRIDIUM 33 DEB",
        "meta_object_id": "1997-051EN",
        "meta_epoch": "2025-12-02T05:30:39.557664",
        "meta_mean_motion": 14.38450658,
        "meta_eccentricity": 0.0026569,
        "meta_inclination": 86.3516,
        "meta_ra_of_asc_node": 52.7218,
        "meta_arg_of_pericenter": 324.6126,
        "meta_mean_anomaly": 35.3308,
        "meta_ephemeris_type": 0,
        "meta_classification_type": "U",
        "meta_norad_cat_id": 34159,
        "meta_element_set_no": 999,
        "meta_rev_at_epoch": 87808,
        "meta_bstar": 0.00054436,
        "meta_mean_motion_dot": 1.686e-05,
        "meta_mean_motion_ddot": 0,
        "tle_line1": "1 34159U 97051EN  25336.22962451  .00001686  00000+0  54436-3 0  9999",
        "tle_line2": "2 34159  86.3516  52.7218 0026569 324.6126  35.3308 14.38450658878087"
      },
      "geometry": {
        "type": "Point",
        "coordinates": [
          -131.23065105107463,
          45.586020561913706
        ]
      }
    }
  ]
}